[{"OBJECT_NAME":"STARLINK-31474","OBJECT_ID":"2024-056J","EPOCH":"2026-03-09T10:19:57.436896","MEAN_MOTION":15.27574581,"ECCENTRICITY":0.00017282,"INCLINATION":43.0036,"RA_OF_ASC_NODE":225.3421,"ARG_OF_PERICENTER":280.3945,"MEAN_ANOMALY":79.6712,"EPHEMERIS_TYPE":0,"CLASSIFICATION_TYPE":"U","NORAD_CAT_ID":59304,"ELEMENT_SET_NO":999,"REV_AT_EPOCH":11119,"BSTAR":9.171097e-5,"MEAN_MOTION_DOT":2.262e-5,"MEAN_MOTION_DDOT":0},{"OBJECT_NAME":"PEGASUS R\/B","OBJECT_ID":"2007-015B","EPOCH":"2026-03-09T10:58:33.801024","MEAN_MOTION":15.26741121,"ECCENTRICITY":0.00105976,"INCLINATION":97.9168,"RA_OF_ASC_NODE":31.3919,"ARG_OF_PERICENTER":317.6341,"MEAN_ANOMALY":42.4077,"EPHEMERIS_TYPE":0,"CLASSIFICATION_TYPE":"U","NORAD_CAT_ID":31305,"ELEMENT_SET_NO":999,"REV_AT_EPOCH":3383,"BSTAR":0.00044093522,"MEAN_MOTION_DOT":0.00011537,"MEAN_MOTION_DDOT":0}]
